NORAD_CAT_ID,OBJECT_NAME,OBJECT_TYPE,EPOCH,MEAN_MOTION,ECCENTRICITY,INCLINATION,RA_OF_ASC_NODE,ARG_OF_PERICENTER,MEAN_ANOMALY,BSTAR,MEAN_MOTION_DOT,MEAN_MOTION_DDOT,TLE_LINE0,TLE_LINE1,TLE_LINE2,SEMIMAJOR_AXIS,PERIOD,APOGEE,PERIGEE,DECAYED
53595.0,STARLINK-4684,PAYLOAD,2024-01-03 20:59:36,15.08836622,0.000145,53.2153,216.6843,95.9061,264.2096,1.8498e-06,-2.59e-06,0.0,0 STARLINK-4684,1 53595U 22104H   24003.87472986 -.00000259  00000-0  18498-5 0  9998,2 53595  53.2153 216.6843 0001450  95.9061 264.2096 15.08836622 75808,6917.891,95.438,540.759,538.753,0.0
53595.0,STARLINK-4684,PAYLOAD,2024-01-04 14:28:51,15.08836252,0.0001459,53.215,213.4136,95.9423,264.1736,-4.8713e-06,-3.65e-06,0.0,0 STARLINK-4684,1 53595U 22104H   24004.60337147 -.00000365  00000-0 -48713-5 0  9991,2 53595  53.2150 213.4136 0001459  95.9423 264.1736 15.08836252 75917,6917.892,95.438,540.766,538.748,0.0
53595.0,STARLINK-4684,PAYLOAD,2024-01-04 20:50:23,15.08836705,0.0001454,53.2151,212.224,96.4546,263.6612,-2.9246e-06,-3.34e-06,0.0,0 STARLINK-4684,1 53595U 22104H   24004.86833153 -.00000334  00000-0 -29246-5 0  9993,2 53595  53.2151 212.2240 0001454  96.4546 263.6612 15.08836705 75345,6917.89,95.438,540.761,538.75,0.0
53595.0,STARLINK-4684,PAYLOAD,2024-01-05 22:16:34,15.08836703,0.0001415,53.2151,207.4667,92.8407,267.2747,8.0985e-05,1.001e-05,0.0,0 STARLINK-4684,1 53595U 22104H   24005.92817285  .00001001  00000-0  80985-4 0  9995,2 53595  53.2151 207.4667 0001415  92.8407 267.2747 15.08836703 76110,6917.89,95.438,540.734,538.777,0.0
53595.0,STARLINK-4684,PAYLOAD,2024-01-06 12:35:02,15.08837483,0.0001402,53.215,204.7901,92.5098,267.6055,7.4455e-05,8.97e-06,0.0,0 STARLINK-4684,1 53595U 22104H   24006.52433416  .00000897  00000-0  74455-4 0  9999,2 53595  53.2150 204.7901 0001402  92.5098 267.6055 15.08837483 76201,6917.888,95.438,540.723,538.783,0.0
53595.0,STARLINK-4684,PAYLOAD,2024-01-06 20:31:58,15.08838308,0.0001406,53.215,203.3031,92.1309,267.9844,7.3794e-05,8.87e-06,0.0,0 STARLINK-4684,1 53595U 22104H   24006.85553412  .00000887  00000-0  73794-4 0  9998,2 53595  53.2150 203.3031 0001406  92.1309 267.9844 15.08838308 76256,6917.886,95.438,540.723,538.778,0.0
53595.0,STARLINK-4684,PAYLOAD,2024-01-07 12:25:49,15.08839824,0.000142,53.215,200.3299,88.4331,271.6824,5.324e-05,5.59e-06,0.0,0 STARLINK-4684,1 53595U 22104H   24007.51793520  .00000559  00000-0  53240-4 0  9998,2 53595  53.2150 200.3299 0001420  88.4331 271.6824 15.08839824 75745,6917.881,95.438,540.728,538.764,0.0
53595.0,STARLINK-4684,PAYLOAD,2024-01-07 20:22:45,15.08839829,0.0001444,53.2153,198.843,86.3779,273.7379,4.8308e-05,4.81e-06,0.0,0 STARLINK-4684,1 53595U 22104H   24007.84913569  .00000481  00000-0  48308-4 0  9994,2 53595  53.2153 198.8430 0001444  86.3779 273.7379 15.08839829 76402,6917.881,95.438,540.745,538.747,0.0
53595.0,STARLINK-4684,PAYLOAD,2024-01-08 12:16:36,15.08842223,0.0001417,53.2153,195.8693,89.8852,270.2302,7.0094e-05,8.28e-06,0.0,0 STARLINK-4684,1 53595U 22104H   24008.51153287  .00000828  00000-0  70094-4 0  9994,2 53595  53.2153 195.8693 0001417  89.8852 270.2302 15.08842223 76501,6917.874,95.437,540.719,538.758,0.0
53595.0,STARLINK-4684,PAYLOAD,2024-01-08 18:38:08,15.08843925,0.0001421,53.2154,194.68,89.8452,270.2703,8.1885e-05,1.016e-05,0.0,0 STARLINK-4684,1 53595U 22104H   24008.77649112  .00001016  00000-0  81885-4 0  9999,2 53595  53.2154 194.6800 0001421  89.8452 270.2703 15.08843925 75931,6917.868,95.437,540.716,538.75,0.0
53595.0,STARLINK-4684,PAYLOAD,2024-01-09 12:07:23,15.08841762,0.0001412,53.2155,191.4093,89.2383,270.8771,6.8232e-05,7.98e-06,0.0,0 STARLINK-4684,1 53595U 22104H   24009.50513163  .00000798  00000-0  68232-4 0  9994,2 53595  53.2155 191.4093 0001412  89.2383 270.8771 15.08841762 76656,6917.875,95.437,540.717,538.763,0.0
53595.0,STARLINK-4684,PAYLOAD,2024-01-09 21:39:41,15.08844403,0.0001367,53.2157,189.6247,95.3615,264.7534,7.6753e-05,9.34e-06,0.0,0 STARLINK-4684,1 53595U 22104H   24009.90256882  .00000934  00000-0  76753-4 0  9999,2 53595  53.2157 189.6247 0001367  95.3615 264.7534 15.08844403 76714,6917.867,95.437,540.678,538.786,0.0
53595.0,STARLINK-4684,PAYLOAD,2024-01-10 11:58:10,15.08840162,0.0001404,53.2156,186.948,99.093,261.0221,6.8916e-06,-1.78e-06,0.0,0 STARLINK-4684,1 53595U 22104H   24010.49873271 -.00000178  00000-0  68916-5 0  9996,2 53595  53.2156 186.9480 0001404  99.0930 261.0221 15.08840162 76198,6917.88,95.438,540.716,538.774,0.0
53595.0,STARLINK-4684,PAYLOAD,2024-01-11 11:48:58,15.08824198,0.0001302,53.2158,182.4864,88.1585,271.9556,0.00018351,2.633e-05,0.0,0 STARLINK-4684,1 53595U 22104H   24011.49233806  .00002633  00000-0  18351-3 0  9994,2 53595  53.2158 182.4864 0001302  88.1585 271.9556 15.08824198 76348,6917.929,95.439,540.694,538.893,0.0
53595.0,STARLINK-4684,PAYLOAD,2024-01-11 14:59:44,15.08825318,0.0001296,53.2158,181.8917,87.502,272.6121,0.00019915,2.882e-05,0.0,0 STARLINK-4684,1 53595U 22104H   24011.62481808  .00002882  00000-0  19915-3 0  9999,2 53595  53.2158 181.8917 0001296  87.5020 272.6121 15.08825318 76979,6917.925,95.438,540.687,538.894,0.0
53595.0,STARLINK-4684,PAYLOAD,2024-01-11 16:35:07,15.08825287,0.0001286,53.2159,181.5943,86.5337,273.5802,0.00020751,3.015e-05,0.0,0 STARLINK-4684,1 53595U 22104H   24011.69105829  .00003015  00000-0  20751-3 0  9991,2 53595  53.2159 181.5943 0001286  86.5337 273.5802 15.08825287 76987,6917.925,95.438,540.68,538.901,0.0
53595.0,STARLINK-4684,PAYLOAD,2024-01-12 11:39:44,15.08836277,0.0001356,53.2165,178.0258,79.9919,280.1226,6.4156e-05,7.33e-06,0.0,0 STARLINK-4684,1 53595U 22104H   24012.48593639  .00000733  00000-0  64156-4 0  9991,2 53595  53.2165 178.0258 0001356  79.9919 280.1226 15.08836277 76495,6917.892,95.438,540.695,538.819,0.0
53595.0,STARLINK-4684,PAYLOAD,2024-01-12 14:50:31,15.08837422,0.0001351,53.2164,177.4303,82.7997,277.3149,6.3512e-05,7.23e-06,0.0,0 STARLINK-4684,1 53595U 22104H   24012.61841595  .00000723  00000-0  63512-4 0  9997,2 53595  53.2164 177.4303 0001351  82.7997 277.3149 15.08837422 77127,6917.888,95.438,540.688,538.819,0.0
53595.0,STARLINK-4684,PAYLOAD,2024-01-12 18:01:17,15.08838984,0.0001366,53.2163,176.8359,81.2467,278.868,7.7628e-05,9.48e-06,0.0,0 STARLINK-4684,1 53595U 22104H   24012.75089495  .00000948  00000-0  77628-4 0  9997,2 53595  53.2163 176.8359 0001366  81.2467 278.8680 15.08838984 77144,6917.883,95.438,540.693,538.804,0.0
53595.0,STARLINK-4684,PAYLOAD,2024-01-13 14:41:19,15.08832264,0.0001466,53.2174,172.9752,87.7064,272.4096,1.4007e-05,-6.5e-07,0.0,0 STARLINK-4684,1 53595U 22104H   24013.61202590 -.00000065  00000-0  14007-4 0  9999,2 53595  53.2174 172.9752 0001466  87.7064 272.4096 15.08832264 77275,6917.904,95.438,540.783,538.755,0.0
53595.0,STARLINK-4684,PAYLOAD,2024-01-13 19:27:28,15.08832303,0.0001503,53.2176,172.082,82.9574,277.1589,1.0526e-05,-1.2e-06,0.0,0 STARLINK-4684,1 53595U 22104H   24013.81074678 -.00000120  00000-0  10526-4 0  9999,2 53595  53.2176 172.0820 0001503  82.9574 277.1589 15.08832303 76697,6917.904,95.438,540.809,538.729,0.0
53595.0,STARLINK-4684,PAYLOAD,2024-01-14 14:32:05,15.08843815,0.0001535,53.2174,168.5138,75.4193,284.6969,0.00010309,1.353e-05,0.0,0 STARLINK-4684,1 53595U 22104H   24014.60561858  .00001353  00000-0  10309-3 0  9994,2 53595  53.2174 168.5138 0001535  75.4193 284.6969 15.08843815 77423,6917.869,95.437,540.796,538.672,0.0
53595.0,STARLINK-4684,PAYLOAD,2024-01-14 17:42:51,15.08847044,0.0001566,53.2171,167.9187,72.6645,287.4519,0.00013218,1.817e-05,0.0,0 STARLINK-4684,1 53595U 22104H   24014.73809587  .00001817  00000-0  13218-3 0  9999,2 53595  53.2171 167.9187 0001566  72.6645 287.4519 15.08847044 76836,6917.859,95.437,540.807,538.641,0.0
53595.0,STARLINK-4684,PAYLOAD,2024-01-15 09:36:43,15.08842434,0.0001503,53.2169,164.9461,70.126,289.9894,0.0001281,1.751e-05,0.0,0 STARLINK-4684,1 53595U 22104H   24015.40049888  .00001751  00000-0  12810-3 0  9998,2 53595  53.2169 164.9461 0001503  70.1260 289.9894 15.08842434 76934,6917.873,95.437,540.778,538.698,0.0
53595.0,STARLINK-4684,PAYLOAD,2024-01-15 14:22:52,15.08842063,0.000152,53.2171,164.0538,69.9408,290.1748,0.0001193,1.611e-05,0.0,0 STARLINK-4684,1 53595U 22104H   24015.59921931  .00001611  00000-0  11930-3 0  9993,2 53595  53.2171 164.0538 0001520  69.9408 290.1748 15.08842063 77573,6917.874,95.437,540.791,538.688,0.0
53595.0,STARLINK-4684,PAYLOAD,2024-01-15 17:33:38,15.08844243,0.0001647,53.2172,163.46,63.4562,296.6599,0.00014808,2.07e-05,0.0,0 STARLINK-4684,1 53595U 22104H   24015.73169784  .00002070  00000-0  14808-3 0  9996,2 53595  53.2172 163.4600 0001647  63.4562 296.6599 15.08844243 77596,6917.867,95.437,540.872,538.593,0.0
53595.0,STARLINK-4684,PAYLOAD,2024-01-16 09:27:30,15.08843398,0.000131,53.2176,160.4837,83.5074,276.6067,-3.7949e-05,-8.92e-06,0.0,0 STARLINK-4684,1 53595U 22104H   24016.39410203 -.00000892  00000-0 -37949-4 0  9998,2 53595  53.2176 160.4837 0001310  83.5074 276.6067 15.08843398 77089,6917.87,95.437,540.641,538.829,0.0
53595.0,STARLINK-4684,PAYLOAD,2024-01-16 14:13:39,15.08840918,0.0001637,53.2168,159.594,68.1069,292.0097,-7.2896e-06,-4.04e-06,0.0,0 STARLINK-4684,1 53595U 22104H   24016.59282332 -.00000404  00000-0 -72896-5 0  9990,2 53595  53.2168 159.5940 0001637  68.1069 292.0097 15.08840918 77720,6917.878,95.437,540.875,538.61,0.0
53595.0,STARLINK-4684,PAYLOAD,2024-01-16 18:59:48,15.08849076,0.0001329,53.2158,158.6979,84.0131,276.1013,7.394e-06,-1.7e-06,0.0,0 STARLINK-4684,1 53595U 22104H   24016.79153535 -.00000170  00000-0  73940-5 0  9994,2 53595  53.2158 158.6979 0001329  84.0131 276.1013 15.08849076 77754,6917.853,95.437,540.637,538.798,0.0
53595.0,STARLINK-4684,PAYLOAD,2024-01-17 12:29:03,15.0884385,0.0001609,53.2178,155.4225,123.3248,236.7899,-7.6469e-05,-1.505e-05,0.0,0 STARLINK-4684,1 53595U 22104H   24017.52017981 -.00001505  00000-0 -76469-4 0  9992,2 53595  53.2178 155.4225 0001609 123.3248 236.7899 15.08843850 77255,6917.869,95.437,540.847,538.621,0.0
